NORAD_CAT_ID,OBJECT_NAME,OBJECT_TYPE,EPOCH,MEAN_MOTION,ECCENTRICITY,INCLINATION,RA_OF_ASC_NODE,ARG_OF_PERICENTER,MEAN_ANOMALY,BSTAR,MEAN_MOTION_DOT,MEAN_MOTION_DDOT,TLE_LINE0,TLE_LINE1,TLE_LINE2,SEMIMAJOR_AXIS,PERIOD,APOGEE,PERIGEE,DECAYED
50201.0,STARLINK-3255,PAYLOAD,2022-02-10 11:44:29,15.73216251,0.0003156,53.2177,98.4896,15.6009,344.5108,0.00025414,0.00035226,0.0,0 STARLINK-3255,1 50201U 21125AX  22041.48923301  .00035226  00000-0  25414-3 0  9995,2 50201  53.2177  98.4896 0003156  15.6009 344.5108 15.73216251 11803,6727.849,91.532,351.837,347.591,0.0
50201.0,STARLINK-3255,PAYLOAD,2022-02-10 22:00:00,15.73189165,0.0003083,53.2178,96.374,11.1066,251.2578,0.00037313,0.00052055,0.0,0 STARLINK-3255,1 50201U 21125AX  22041.91667824  .00052055  00000-0  37313-3 0  9998,2 50201  53.2178  96.3740 0003083  11.1066 251.2578 15.73189165  3687,6727.926,91.534,351.865,347.717,0.0
50201.0,STARLINK-3255,PAYLOAD,2022-02-11 12:08:09,15.73247632,0.0003892,53.219,93.4612,24.5741,335.5464,0.00027493,0.00038229,0.0,0 STARLINK-3255,1 50201U 21125AX  22042.50566613  .00038229  00000-0  27493-3 0  9993,2 50201  53.2190  93.4612 0003892  24.5741 335.5464 15.73247632 11484,6727.759,91.53,352.24300000000005,347.006,0.0
50201.0,STARLINK-3255,PAYLOAD,2022-02-11 22:00:01,15.7322876,0.0003097,53.2174,91.4255,6.8325,162.5548,2.7442e-05,3.235e-05,0.0,0 STARLINK-3255,1 50201U 21125AX  22042.91668981  .00003235  00000-0  27442-4 0  9993,2 50201  53.2174  91.4255 0003097   6.8325 162.5548 15.73228760 11555,6727.813,91.532,351.76199999999994,347.595,0.0
50201.0,STARLINK-3255,PAYLOAD,2022-02-12 14:00:01,15.73108007,0.0003407,53.2176,88.1286,3.3346,343.891,0.00026858,0.00037099,0.0,0 STARLINK-3255,1 50201U 21125AX  22043.58334491  .00037099  00000-0  26858-3 0  9997,2 50201  53.2176  88.1286 0003407   3.3346 343.8910 15.73108007  3700,6728.156999999997,91.539,352.315,347.73,0.0
50201.0,STARLINK-3255,PAYLOAD,2022-02-12 22:00:00,15.73098784,0.0003194,53.2176,86.4774,2.6634,73.3854,0.00059326,0.0008312,0.0,0 STARLINK-3255,1 50201U 21125AX  22043.91667824  .00083120  00000-0  59326-3 0  9995,2 50201  53.2176  86.4774 0003194   2.6634  73.3854 15.73098784 11709,6728.184,91.539,352.1980000000001,347.9,0.0
50201.0,STARLINK-3255,PAYLOAD,2022-02-13 14:00:01,15.731177,0.0003571,53.2169,83.1809,8.9707,244.8166,0.0005289,0.00074019,0.0,0 STARLINK-3255,1 50201U 21125AX  22044.58334491  .00074019  00000-0  52890-3 0  9996,2 50201  53.2169  83.1809 0003571   8.9707 244.8166 15.73117700 11816,6728.13,91.538,352.397,347.592,0.0
50201.0,STARLINK-3255,PAYLOAD,2022-02-13 22:00:00,15.73222611,0.0003322,53.2169,81.5293,7.4193,335.3068,0.00030439,0.00042364,0.0,0 STARLINK-3255,1 50201U 21125AX  22044.91667824  .00042364  00000-0  30439-3 0  9995,2 50201  53.2169  81.5293 0003322   7.4193 335.3068 15.73222611 11862,6727.831,91.532,351.931,347.461,0.0
50201.0,STARLINK-3255,PAYLOAD,2022-02-14 12:00:02,15.73223882,0.0003625,53.2173,78.6446,10.6709,37.8218,-0.00015508,-0.00022361,0.0,0 STARLINK-3255,1 50201U 21125AX  22045.50002315 -.00022361  00000-0 -15508-3 0  9996,2 50201  53.2173  78.6446 0003625  10.6709  37.8218 15.73223882 11951,6727.8269999999975,91.532,352.131,347.25300000000016,0.0
50201.0,STARLINK-3255,PAYLOAD,2022-02-14 14:00:01,15.73208591,0.0003656,53.217,78.2322,9.8541,150.8157,2.7861e-05,3.2899999999999987e-05,0.0,0 STARLINK-3255,1 50201U 21125AX  22045.58334491  .00003290  00000-0  27861-4 0  9991,2 50201  53.2170  78.2322 0003656   9.8541 150.8157 15.73208591  3695,6727.871,91.533,352.195,347.276,0.0
50201.0,STARLINK-3255,PAYLOAD,2022-02-14 20:00:01,15.73206668,0.0003484,53.2171,76.9934,10.5046,126.8705,7.2679e-05,9.594e-05,0.0,0 STARLINK-3255,1 50201U 21125AX  22045.83334491  .00009594  00000-0  72679-4 0  9999,2 50201  53.2171  76.9934 0003484  10.5046 126.8705 15.73206668  3682,6727.876,91.533,352.085,347.397,0.0
50201.0,STARLINK-3255,PAYLOAD,2022-02-15 14:00:01,15.73186356,0.0003767,53.216,73.2834,13.3567,54.1228,-0.00013611,-0.00019678,0.0,0 STARLINK-3255,1 50201U 21125AX  22046.58334491 -.00019678  00000-0 -13611-3 0  9998,2 50201  53.2160  73.2834 0003767  13.3567  54.1228 15.73186356 12125,6727.934,91.534,352.333,347.265,0.0
50201.0,STARLINK-3255,PAYLOAD,2022-02-15 22:00:01,15.73143717,0.0003473,53.2161,71.6319,13.7109,142.7454,0.00058035,0.00081442,0.0,0 STARLINK-3255,1 50201U 21125AX  22046.91668981  .00081442  00000-0  58035-3 0  9994,2 50201  53.2161  71.6319 0003473  13.7109 142.7454 15.73143717  3686,6728.056,91.536,352.25699999999995,347.584,0.0
50201.0,STARLINK-3255,PAYLOAD,2022-02-16 06:00:00,15.73209601,0.000363,53.2166,69.9832,15.3421,229.942,5.4668e-05,7.06e-05,0.0,0 STARLINK-3255,1 50201U 21125AX  22047.25001157  .00007060  00000-0  54668-4 0  9991,2 50201  53.2166  69.9832 0003630  15.3421 229.9420 15.73209601 12238,6727.868,91.533,352.175,347.291,0.0
50201.0,STARLINK-3255,PAYLOAD,2022-02-16 14:00:01,15.7323283,0.000377,53.2163,68.3348,12.4875,321.754,-0.00031291,-0.00044389,0.0,0 STARLINK-3255,1 50201U 21125AX  22047.58334491 -.00044389  00000-0 -31291-3 0  9990,2 50201  53.2163  68.3348 0003770  12.4875 321.7540 15.73232830  3690,6727.802,91.531,352.20300000000015,347.13,0.0
50201.0,STARLINK-3255,PAYLOAD,2022-02-16 22:00:00,15.73192657,0.0003535,53.2164,66.683,12.7442,50.4709,0.00037584,0.00052452,0.0,0 STARLINK-3255,1 50201U 21125AX  22047.91667824  .00052452  00000-0  37584-3 0  9995,2 50201  53.2164  66.6830 0003535  12.7442  50.4709 15.73192657  3662,6727.916,91.534,352.159,347.403,0.0
50201.0,STARLINK-3255,PAYLOAD,2022-02-17 14:00:01,15.73244525,0.0003727,53.2155,63.3856,10.1459,230.9554,-0.00037416,-0.00052928,0.0,0 STARLINK-3255,1 50201U 21125AX  22048.58334491 -.00052928  00000-0 -37416-3 0  9994,2 50201  53.2155  63.3856 0003727  10.1459 230.9554 15.73244525 12448,6727.768,91.531,352.141,347.126,0.0
50201.0,STARLINK-3255,PAYLOAD,2022-02-17 22:00:00,15.73174286,0.0003455,53.2157,61.7341,8.7171,321.3552,0.00033033,0.00045952,0.0,0 STARLINK-3255,1 50201U 21125AX  22048.91667824  .00045952  00000-0  33033-3 0  9998,2 50201  53.2157  61.7341 0003455   8.7171 321.3552 15.73174286  3701,6727.968000000003,91.535,352.158,347.509,0.0
50201.0,STARLINK-3255,PAYLOAD,2022-02-18 14:00:01,15.73162961,0.0003744,53.2162,58.4369,6.2114,141.6621,0.00018894,0.00025942,0.0,0 STARLINK-3255,1 50201U 21125AX  22049.58334491  .00025942  00000-0  18894-3 0  9998,2 50201  53.2162  58.4369 0003744   6.2114 141.6621 15.73162961 12607,6728.001,91.535,352.385,347.347,0.0
50201.0,STARLINK-3255,PAYLOAD,2022-02-18 20:00:01,15.73205583,0.0003594,53.2175,57.1767,9.9489,114.4205,-5.0337e-06,-1.331e-05,0.0,0 STARLINK-3255,1 50201U 21125AX  22049.83334491 -.00001331  00000-0 -50337-5 0  9994,2 50201  53.2175  57.1767 0003594   9.9489 114.4205 15.73205583 12634,6727.879,91.533,352.162,347.326,0.0
50201.0,STARLINK-3255,PAYLOAD,2022-02-19 06:00:00,15.7324413,0.0003728,53.2161,55.1376,8.8022,316.9062,-0.00011353,-0.00016563,0.0,0 STARLINK-3255,1 50201U 21125AX  22050.25001157 -.00016563  00000-0 -11353-3 0  9998,2 50201  53.2161  55.1376 0003728   8.8022 316.9062 15.73244130 12702,6727.769,91.531,352.142,347.126,0.0
50201.0,STARLINK-3255,PAYLOAD,2022-02-19 14:00:01,15.73231678,0.0003753,53.2156,53.488,7.4047,47.2822,-0.00015137,-0.00021851,0.0,0 STARLINK-3255,1 50201U 21125AX  22050.58334491 -.00021851  00000-0 -15137-3 0  9994,2 50201  53.2156  53.4880 0003753   7.4047  47.2822 15.73231678  3663,6727.805,91.531,352.195,347.145,0.0
50201.0,STARLINK-3255,PAYLOAD,2022-02-19 20:00:01,15.73196347,0.0003521,53.2159,52.2492,8.0293,23.3834,0.0005147,0.00072243,0.0,0 STARLINK-3255,1 50201U 21125AX  22050.83334491  .00072243  00000-0  51470-3 0  9991,2 50201  53.2159  52.2492 0003521   8.0293  23.3834 15.73196347  3701,6727.906,91.533,352.139,347.402,0.0
50201.0,STARLINK-3255,PAYLOAD,2022-02-20 14:00:01,15.72774024,0.0003932,53.2167,48.5213,14.5767,306.9189,0.004779,0.00717395,0.0,0 STARLINK-3255,1 50201U 21125AX  22051.58334491  .00717395  00000-0  47790-2 0  9997,2 50201  53.2167  48.5213 0003932  14.5767 306.9189 15.72774024 12912,6729.11,91.558,353.621,348.329,0.0
50201.0,STARLINK-3255,PAYLOAD,2022-02-20 22:00:00,15.73206014,0.000356,53.2167,46.88800000000001,9.6969,40.7714,-0.00017224,-0.00024741,0.0,0 STARLINK-3255,1 50201U 21125AX  22051.91667824 -.00024741  00000-0 -17224-3 0  9991,2 50201  53.2167  46.8880 0003560   9.6969  40.7714 15.73206014  3668,6727.878000000002,91.533,352.13800000000015,347.348,0.0
50201.0,STARLINK-3255,PAYLOAD,2022-02-21 06:00:00,15.73180545,0.0003784,53.2164,45.2406,9.1906,130.2062,0.00018664,0.00025637,0.0,0 STARLINK-3255,1 50201U 21125AX  22052.25001157  .00025637  00000-0  18664-3 0  9992,2 50201  53.2164  45.2406 0003784   9.1906 130.2062 15.73180545 13017,6727.951,91.534,352.361,347.27,0.0
50201.0,STARLINK-3255,PAYLOAD,2022-02-21 22:00:00,15.73154605,0.000348,53.2164,41.9397,8.217,309.0417,0.00054881,0.00076977,0.0,0 STARLINK-3255,1 50201U 21125AX  22052.91667824  .00076977  00000-0  54881-3 0  9998,2 50201  53.2164  41.9397 0003480   8.2170 309.0417 15.73154605 13125,6728.025,91.536,352.231,347.548,0.0
50201.0,STARLINK-3255,PAYLOAD,2022-02-22 04:00:00,15.73233545,0.0003613,53.2165,40.7043,6.791,287.1354,-0.00063281,-0.00088669,0.0,0 STARLINK-3255,1 50201U 21125AX  22053.16667824 -.00088669  00000-0 -63281-3 0  9993,2 50201  53.2165  40.7043 0003613   6.7910 287.1354 15.73233545 13165,6727.8,91.531,352.095,347.2340000000001,0.0
50201.0,STARLINK-3255,PAYLOAD,2022-02-22 14:00:01,15.731976800000002,0.0003695,53.2167,38.6423,5.1532,129.9448,8.822100000000001e-05,0.00011778,0.0,0 STARLINK-3255,1 50201U 21125AX  22053.58334491  .00011778  00000-0  88221-4 0  9997,2 50201  53.2167  38.6423 0003695   5.1532 129.9448 15.73197680 13221,6727.901999999999,91.533,352.25300000000016,347.281,0.0
